YAOGAN-30 03B           
1 43029U 17075B   26068.66083794  .00004149  00000+0  31129-3 0  9999
2 43029  34.9935 156.6050 0002510  89.1241 270.9754 15.02124587452380
STARLINK-30357          
1 57750U 23131U   26068.32974647  .00000504  00000+0  52368-4 0  9994
2 57750  43.0008 173.4323 0001190 269.2159  90.8547 15.02532723139870
